LIZZIESAT-1 (LS-1)      
1 59132U 24043AL  26068.89230471  .00005784  00000+0  22329-3 0  9993
2 59132  97.5461 203.4772 0009923 229.9925 130.0443 15.26635711111780
STARLINK-34048          
1 63816U 25092N   26068.31506782  .00024390  00000+0  89272-3 0  9994
2 63816  42.9972 174.9792 0000770 251.6672 108.4096 15.27586411 48607
